NORAD_CAT_ID,OBJECT_NAME,OBJECT_TYPE,EPOCH,MEAN_MOTION,ECCENTRICITY,INCLINATION,RA_OF_ASC_NODE,ARG_OF_PERICENTER,MEAN_ANOMALY,BSTAR,MEAN_MOTION_DOT,MEAN_MOTION_DDOT,TLE_LINE0,TLE_LINE1,TLE_LINE2,SEMIMAJOR_AXIS,PERIOD,APOGEE,PERIGEE,DECAYED
52856.0,STARLINK-4201,PAYLOAD,2023-05-24 15:52:15,15.08844757,0.0001084,53.2158,283.2087,74.6767,285.4345,7.2113e-05,8.6e-06,0.0,0 STARLINK-4201,1 52856U 22062AC  23144.66128663  .00000860  00000-0  72113-4 0  9992,2 52856  53.2158 283.2087 0001084  74.6767 285.4345 15.08844757 51930,6917.866,95.437,540.481,538.981,0.0
52856.0,STARLINK-4201,PAYLOAD,2023-05-25 14:07:39,15.0884305,0.000109,53.2158,279.0457,77.411,282.7004,0.00015607,2.197e-05,0.0,0 STARLINK-4201,1 52856U 22062AC  23145.58864720  .00002197  00000-0  15607-3 0  9994,2 52856  53.2158 279.0457 0001090  77.4110 282.7004 15.08843050 52077,6917.871,95.437,540.49,538.982,0.0
52856.0,STARLINK-4201,PAYLOAD,2023-05-25 15:43:02,15.08845227,0.0001103,53.216,278.7486,78.2195,281.8921,0.00017154,2.444e-05,0.0,0 STARLINK-4201,1 52856U 22062AC  23145.65488596  .00002444  00000-0  17154-3 0  9999,2 52856  53.2160 278.7486 0001103  78.2195 281.8921 15.08845227 52576,6917.864,95.437,540.492,538.966,0.0
52856.0,STARLINK-4201,PAYLOAD,2023-05-26 09:12:16,15.08841072,0.0001169,53.2162,275.477,81.285,278.8274,7.3436e-05,8.81e-06,0.0,0 STARLINK-4201,1 52856U 22062AC  23146.38352688  .00000881  00000-0  73436-4 0  9991,2 52856  53.2162 275.4770 0001169  81.2850 278.8274 15.08841072 52685,6917.877,95.437,540.551,538.933,0.0
52856.0,STARLINK-4201,PAYLOAD,2023-05-26 13:58:26,15.08842116,0.0001121,53.2162,274.5846,85.3968,274.7153,7.1271e-05,8.47e-06,0.0,0 STARLINK-4201,1 52856U 22062AC  23146.58224565  .00000847  00000-0  71271-4 0  9992,2 52856  53.2162 274.5846 0001121  85.3968 274.7153 15.08842116 52223,6917.874,95.437,540.514,538.963,0.0
52856.0,STARLINK-4201,PAYLOAD,2023-05-26 15:33:49,15.08842303,0.0001107,53.2174,274.2888,94.0985,266.0133,0.00010255,1.345e-05,0.0,0 STARLINK-4201,1 52856U 22062AC  23146.64848581  .00001345  00000-0  10255-3 0  9997,2 52856  53.2174 274.2888 0001107  94.0985 266.0133 15.08842303 52230,6917.873,95.437,540.504,538.973,0.0
52856.0,STARLINK-4201,PAYLOAD,2023-05-27 15:24:36,15.08838614,0.000111,53.2172,269.829,108.9999,251.1114,-9.5571e-06,-4.4e-06,0.0,0 STARLINK-4201,1 52856U 22062AC  23147.64209111 -.00000440  00000-0 -95571-5 0  9991,2 52856  53.2172 269.8290 0001110 108.9999 251.1114 15.08838614 52873,6917.885,95.438,540.518,538.982,0.0
52856.0,STARLINK-4201,PAYLOAD,2023-05-28 00:56:55,15.08837097,0.0001054,53.2171,268.0449,104.5438,255.5671,5.2984e-05,5.56e-06,0.0,0 STARLINK-4201,1 52856U 22062AC  23148.03953109  .00000556  00000-0  52984-4 0  9994,2 52856  53.2171 268.0449 0001054 104.5438 255.5671 15.08837097 52449,6917.889,95.438,540.483,539.025,0.0
52856.0,STARLINK-4201,PAYLOAD,2023-05-28 16:50:45,15.08850608,0.0001001,53.2168,265.0709,103.3742,256.7362,0.00013655,1.887e-05,0.0,0 STARLINK-4201,1 52856U 22062AC  23148.70192034  .00001887  00000-0  13655-3 0  9999,2 52856  53.2168 265.0709 0001001 103.3742 256.7362 15.08850608 53037,6917.848,95.437,540.405,539.02,0.0
52856.0,STARLINK-4201,PAYLOAD,2023-05-29 00:47:42,15.08844397,9.94e-05,53.2167,263.5842,103.8188,256.2914,3.5986e-05,2.85e-06,0.0,0 STARLINK-4201,1 52856U 22062AC  23149.03312576  .00000285  00000-0  35986-4 0  9994,2 52856  53.2167 263.5842 0000994 103.8188 256.2914 15.08844397 53087,6917.867,95.437,540.42,539.044,0.0
52856.0,STARLINK-4201,PAYLOAD,2023-05-29 13:30:47,15.08840315,9.72e-05,53.2164,261.2049,101.1329,258.9772,9.5266e-05,1.229e-05,0.0,0 STARLINK-4201,1 52856U 22062AC  23149.56304779  .00001229  00000-0  95266-4 0  9994,2 52856  53.2164 261.2049 0000972 101.1329 258.9772 15.08840315 52673,6917.879,95.438,540.417,539.072,0.0
52856.0,STARLINK-4201,PAYLOAD,2023-05-29 15:06:10,15.08842087,9.8e-05,53.2164,260.9062,96.0793,264.0311,8.7092e-05,1.099e-05,0.0,0 STARLINK-4201,1 52856U 22062AC  23149.62928668  .00001099  00000-0  87092-4 0  9993,2 52856  53.2164 260.9062 0000980  96.0793 264.0311 15.08842087 52686,6917.874,95.437,540.417,539.061,0.0
52856.0,STARLINK-4201,PAYLOAD,2023-05-30 11:46:11,15.08838543,0.0001037,53.2176,257.0373,86.9441,273.167,-3.2008e-06,-3.39e-06,0.0,0 STARLINK-4201,1 52856U 22062AC  23150.49041179 -.00000339  00000-0 -32008-5 0  9999,2 52856  53.2176 257.0373 0001037  86.9441 273.1670 15.08838543 52819,6917.885,95.438,540.467,539.032,0.0
52856.0,STARLINK-4201,PAYLOAD,2023-05-30 16:32:20,15.08843201,9.63e-05,53.2171,256.1453,93.5531,266.5571,-2.7536e-05,-7.26e-06,0.0,0 STARLINK-4201,1 52856U 22062AC  23150.68912907 -.00000726  00000-0 -27536-4 0  9995,2 52856  53.2171 256.1453 0000963  93.5531 266.5571 15.08843201 53335,6917.871,95.437,540.402,539.069,0.0
52856.0,STARLINK-4201,PAYLOAD,2023-05-31 13:12:21,15.08844867,8.76e-05,53.2162,252.2799,92.1436,267.9656,4.8646e-05,4.87e-06,0.0,0 STARLINK-4201,1 52856U 22062AC  23151.55024609  .00000487  00000-0  48646-4 0  9992,2 52856  53.2162 252.2799 0000876  92.1436 267.9656 15.08844867 52974,6917.866,95.437,540.337,539.125,0.0
52856.0,STARLINK-4201,PAYLOAD,2023-06-01 09:52:22,15.08838973,9.01e-05,53.2157,248.4146,87.7764,272.3331,9.5916e-05,1.239e-05,0.0,0 STARLINK-4201,1 52856U 22062AC  23152.41136886  .00001239  00000-0  95916-4 0  9997,2 52856  53.2157 248.4146 0000901  87.7764 272.3331 15.08838973 53101,6917.884,95.438,540.372,539.125,0.0
52856.0,STARLINK-4201,PAYLOAD,2023-06-02 11:18:33,15.08825878,8.48e-05,53.2155,243.6574,88.4438,271.6652,0.00010104,1.32e-05,0.0,0 STARLINK-4201,1 52856U 22062AC  23153.47121932  .00001320  00000-0  10104-3 0  9996,2 52856  53.2155 243.6574 0000848  88.4438 271.6652 15.08825878 53756,6917.924,95.438,540.375,539.202,0.0
52856.0,STARLINK-4201,PAYLOAD,2023-06-02 16:04:42,15.08836296,8.93e-05,53.2155,242.7645,94.9672,265.1422,-2.1581e-05,-6.31e-06,0.0,0 STARLINK-4201,1 52856U 22062AC  23153.66993568 -.00000631  00000-0 -21581-4 0  9997,2 52856  53.2155 242.7645 0000893  94.9672 265.1422 15.08836296 53789,6917.892,95.438,540.374,539.139,0.0
52856.0,STARLINK-4201,PAYLOAD,2023-06-03 11:09:20,15.08834908,0.0001126,53.2158,239.1973,116.9579,243.1528,1.3429e-05,-7.4e-07,0.0,0 STARLINK-4201,1 52856U 22062AC  23154.46481724 -.00000074  00000-0  13429-4 0  9994,2 52856  53.2158 239.1973 0001126 116.9579 243.1528 15.08834908 53418,6917.896,95.438,540.54,538.982,0.0
52856.0,STARLINK-4201,PAYLOAD,2023-06-03 22:17:02,15.08835697,9.32e-05,53.2156,237.1157,102.2736,257.836,4.7371e-05,4.66e-06,0.0,0 STARLINK-4201,1 52856U 22062AC  23154.92849742  .00000466  00000-0  47371-4 0  9990,2 52856  53.2156 237.1157 0000932 102.2736 257.8360 15.08835697 53978,6917.894,95.438,540.403,539.114,0.0
52856.0,STARLINK-4201,PAYLOAD,2023-06-04 11:00:07,15.0883734,8.95e-05,53.2151,234.7367,96.2989,263.8105,0.00010536,1.389e-05,0.0,0 STARLINK-4201,1 52856U 22062AC  23155.45841600  .00001389  00000-0  10536-3 0  9991,2 52856  53.2151 234.7367 0000895  96.2989 263.8105 15.08837340 53565,6917.889,95.438,540.373,539.134,0.0
52856.0,STARLINK-4201,PAYLOAD,2023-06-04 14:10:53,15.08840446,9.39e-05,53.2159,234.1425,100.7173,259.3925,0.00012824,1.754e-05,0.0,0 STARLINK-4201,1 52856U 22062AC  23155.59089353  .00001754  00000-0  12824-3 0  9993,2 52856  53.2159 234.1425 0000939 100.7173 259.3925 15.08840446 53580,6917.879,95.438,540.394,539.094,0.0
52856.0,STARLINK-4201,PAYLOAD,2023-06-05 04:29:21,15.0883804,8.83e-05,53.2157,231.4668,89.7909,270.3185,9.8403e-05,1.279e-05,0.0,0 STARLINK-4201,1 52856U 22062AC  23156.18705678  .00001279  00000-0  98403-4 0  9994,2 52856  53.2157 231.4668 0000883  89.7909 270.3185 15.08838040 54161,6917.886,95.438,540.362,539.141,0.0
52856.0,STARLINK-4201,PAYLOAD,2023-06-05 12:26:17,15.08842356,8.43e-05,53.2156,229.9801,90.9189,269.19,0.00010436,1.374e-05,0.0,0 STARLINK-4201,1 52856U 22062AC  23156.51825398  .00001374  00000-0  10436-3 0  9998,2 52856  53.2156 229.9801 0000843  90.9189 269.1900 15.08842356 53728,6917.873,95.437,540.321,539.155,0.0
52856.0,STARLINK-4201,PAYLOAD,2023-06-05 14:01:40,15.08845192,8.51e-05,53.2158,229.6829,92.8629,267.246,0.00012667,1.729e-05,0.0,0 STARLINK-4201,1 52856U 22062AC  23156.58449141  .00001729  00000-0  12667-3 0  9995,2 52856  53.2158 229.6829 0000851  92.8629 267.2460 15.08845192 54223,6917.865,95.437,540.318,539.141,0.0
52856.0,STARLINK-4201,PAYLOAD,2023-06-06 07:30:55,15.08837133,9.83e-05,53.2154,226.4115,85.9735,274.137,-1.9675e-06,-3.19e-06,0.0,0 STARLINK-4201,1 52856U 22062AC  23157.31314084 -.00000319  00000-0 -19675-5 0  9998,2 52856  53.2154 226.4115 0000983  85.9735 274.1370 15.08837133 54334,6917.889,95.438,540.434,539.074,0.0
52856.0,STARLINK-4201,PAYLOAD,2023-06-06 12:17:04,15.08839624,8.69e-05,53.2155,225.5201,70.4444,289.6642,-1.0462e-05,-4.54e-06,0.0,0 STARLINK-4201,1 52856U 22062AC  23157.51185952 -.00000454  00000-0 -10462-4 0  9994,2 52856  53.2155 225.5201 0000869  70.4444 289.6642 15.08839624 53878,6917.882,95.438,540.348,539.145,0.0
52856.0,STARLINK-4201,PAYLOAD,2023-06-06 13:52:27,15.08840414,9.17e-05,53.2157,225.2234,69.8288,290.2803,1.8874e-05,1.3e-07,0.0,0 STARLINK-4201,1 52856U 22062AC  23157.57809813  .00000013  00000-0  18874-4 0  9993,2 52856  53.2157 225.2234 0000917  69.8288 290.2803 15.08840414 53882,6917.879,95.438,540.378,539.11,0.0
52856.0,STARLINK-4201,PAYLOAD,2023-06-07 07:21:41,15.08842046,9.35e-05,53.2156,221.9521,85.7637,274.3462,2.7274e-05,1.46e-06,0.0,0 STARLINK-4201,1 52856U 22062AC  23158.30673608  .00000146  00000-0  27274-4 0  9997,2 52856  53.2156 221.9521 0000935  85.7637 274.3462 15.08842046 54482,6917.874,95.437,540.386,539.092,0.0
52856.0,STARLINK-4201,PAYLOAD,2023-06-07 13:43:14,15.0884419,9.35e-05,53.2153,220.7627,78.4819,281.6278,4.6245e-05,4.48e-06,0.0,0 STARLINK-4201,1 52856U 22062AC  23158.57169407  .00000448  00000-0  46245-4 0  9997,2 52856  53.2153 220.7627 0000935  78.4819 281.6278 15.08844190 54033,6917.868,95.437,540.379,539.086,0.0
